STARLINK-36393          
1 67859U 26034K   26064.17307984  .00371934  00000+0  17993-2 0  9994
2 67859  53.1592 233.9124 0001317  96.3204 263.7968 15.80977481  3220
STARLINK-35873          
1 67860U 26034L   26064.17233709  .00439808  00000+0  21078-2 0  9993
2 67860  53.1592 233.9077 0002417  73.4114 286.7174 15.81002677  3251
STARLINK-36325          
1 67861U 26034M   26064.00002315  .00029661  00000+0  15335-3 0  9995
2 67861  53.1586 234.7631 0000676  73.4798  29.7144 15.80865682  3101
STARLINK-36332          
1 67862U 26034N   26064.00002315  .00052732  00000+0  26944-3 0  9999
2 67862  53.1585 234.7546 0001070  75.3785  32.1074 15.80843503  3100
STARLINK-36835          
1 67863U 26034P   26064.00002315  .00101876  00000+0  51458-3 0  9992
2 67863  53.1588 234.7446 0001167  71.2935  40.4503 15.80832226  3101
STARLINK-36831          
1 67864U 26034Q   26064.16932948  .00332200  00000+0  16156-2 0  9996
2 67864  53.1585 233.8864 0001628  49.9378 310.1788 15.80968154  3223
STARLINK-36738          
1 67865U 26034R   26064.00002315  .00030762  00000+0  15883-3 0  9991
2 67865  53.1587 234.7274 0000437  90.8552  29.4133 15.80874076  3107
STARLINK-36780          
1 67866U 26034S   26064.25003472  .00074492  00000+0  37822-3 0  9999
2 67866  53.1592 233.4626 0001256  67.0612  41.1763 15.80843185  3145
STARLINK-36761          
1 67867U 26034T   26064.25003472  .00020748  00000+0  10844-3 0  9990
2 67867  53.1593 233.4538 0000614  95.4736  17.0323 15.80865265  3145
STARLINK-36762          
1 67868U 26034U   26064.25003472  .00086428  00000+0  43775-3 0  9997
2 67868  53.1591 233.4454 0001078 116.4612   0.3213 15.80838161  3141
STARLINK-36779          
1 67869U 26034V   26064.25003472  .00105105  00000+0  53082-3 0  9994
2 67869  53.1592 233.4360 0001245  80.1281  40.9316 15.80822396  3141
STARLINK-36770          
1 67870U 26034W   26064.25003472  .00111078  00000+0  56050-3 0  9990
2 67870  53.1591 233.4182 0000175 121.1850   8.4215 15.80818180  3146
STARLINK-36769          
1 67871U 26034X   26064.25003472  .00098248  00000+0  49654-3 0  9996
2 67871  53.1593 233.4273 0001009  72.5958  52.7325 15.80834580  3141
STARLINK-36786          
1 67872U 26034Y   26064.25003472  .00074939  00000+0  38060-3 0  9997
2 67872  53.1592 233.4097 0001143  74.7576  59.1177 15.80834714  3149
STARLINK-36783          
1 67873U 26034Z   26064.25003472  .00070290  00000+0  35722-3 0  9996
2 67873  53.1595 233.4001 0001080 131.4567   6.6819 15.80845343  3149
STARLINK-36730          
1 67874U 26034AA  26064.25003472  .00094137  00000+0  47625-3 0  9998
2 67874  53.1592 233.3918 0000963  80.4114  62.0067 15.80829309  3148
