[{"OBJECT_NAME":"STARLINK-36393","OBJECT_ID":"2026-034K","EPOCH":"2026-03-05T04:09:14.098176","MEAN_MOTION":15.80977481,"ECCENTRICITY":0.00013171,"INCLINATION":53.1592,"RA_OF_ASC_NODE":233.9124,"ARG_OF_PERICENTER":96.3204,"MEAN_ANOMALY":263.7968,"EPHEMERIS_TYPE":0,"CLASSIFICATION_TYPE":"U","NORAD_CAT_ID":67859,"ELEMENT_SET_NO":999,"REV_AT_EPOCH":322,"BSTAR":0.00179928,"MEAN_MOTION_DOT":0.00371934,"MEAN_MOTION_DDOT":0},{"OBJECT_NAME":"STARLINK-35873","OBJECT_ID":"2026-034L","EPOCH":"2026-03-05T04:08:09.924576","MEAN_MOTION":15.81002677,"ECCENTRICITY":0.00024173,"INCLINATION":53.1592,"RA_OF_ASC_NODE":233.9077,"ARG_OF_PERICENTER":73.4114,"MEAN_ANOMALY":286.7174,"EPHEMERIS_TYPE":0,"CLASSIFICATION_TYPE":"U","NORAD_CAT_ID":67860,"ELEMENT_SET_NO":999,"REV_AT_EPOCH":325,"BSTAR":0.0021077533,"MEAN_MOTION_DOT":0.00439808,"MEAN_MOTION_DDOT":0},{"OBJECT_NAME":"STARLINK-36325","OBJECT_ID":"2026-034M","EPOCH":"2026-03-05T00:00:02.000160","MEAN_MOTION":15.80865682,"ECCENTRICITY":6.767e-5,"INCLINATION":53.1586,"RA_OF_ASC_NODE":234.7631,"ARG_OF_PERICENTER":73.4798,"MEAN_ANOMALY":29.7144,"EPHEMERIS_TYPE":0,"CLASSIFICATION_TYPE":"U","NORAD_CAT_ID":67861,"ELEMENT_SET_NO":999,"REV_AT_EPOCH":310,"BSTAR":0.00015334794,"MEAN_MOTION_DOT":0.00029661,"MEAN_MOTION_DDOT":0},{"OBJECT_NAME":"STARLINK-36332","OBJECT_ID":"2026-034N","EPOCH":"2026-03-05T00:00:02.000160","MEAN_MOTION":15.80843503,"ECCENTRICITY":0.00010702,"INCLINATION":53.1585,"RA_OF_ASC_NODE":234.7546,"ARG_OF_PERICENTER":75.3785,"MEAN_ANOMALY":32.1074,"EPHEMERIS_TYPE":0,"CLASSIFICATION_TYPE":"U","NORAD_CAT_ID":67862,"ELEMENT_SET_NO":999,"REV_AT_EPOCH":310,"BSTAR":0.00026943595,"MEAN_MOTION_DOT":0.00052732,"MEAN_MOTION_DDOT":0},{"OBJECT_NAME":"STARLINK-36835","OBJECT_ID":"2026-034P","EPOCH":"2026-03-05T00:00:02.000160","MEAN_MOTION":15.80832226,"ECCENTRICITY":0.00011676,"INCLINATION":53.1588,"RA_OF_ASC_NODE":234.7446,"ARG_OF_PERICENTER":71.2935,"MEAN_ANOMALY":40.4503,"EPHEMERIS_TYPE":0,"CLASSIFICATION_TYPE":"U","NORAD_CAT_ID":67863,"ELEMENT_SET_NO":999,"REV_AT_EPOCH":310,"BSTAR":0.00051458404,"MEAN_MOTION_DOT":0.00101876,"MEAN_MOTION_DDOT":0},{"OBJECT_NAME":"STARLINK-36831","OBJECT_ID":"2026-034Q","EPOCH":"2026-03-05T04:03:50.067072","MEAN_MOTION":15.80968154,"ECCENTRICITY":0.0001628,"INCLINATION":53.1585,"RA_OF_ASC_NODE":233.8864,"ARG_OF_PERICENTER":49.9378,"MEAN_ANOMALY":310.1788,"EPHEMERIS_TYPE":0,"CLASSIFICATION_TYPE":"U","NORAD_CAT_ID":67864,"ELEMENT_SET_NO":999,"REV_AT_EPOCH":322,"BSTAR":0.0016156326,"MEAN_MOTION_DOT":0.003322,"MEAN_MOTION_DDOT":0},{"OBJECT_NAME":"STARLINK-36738","OBJECT_ID":"2026-034R","EPOCH":"2026-03-05T00:00:02.000160","MEAN_MOTION":15.80874076,"ECCENTRICITY":4.376e-5,"INCLINATION":53.1587,"RA_OF_ASC_NODE":234.7274,"ARG_OF_PERICENTER":90.8552,"MEAN_ANOMALY":29.4133,"EPHEMERIS_TYPE":0,"CLASSIFICATION_TYPE":"U","NORAD_CAT_ID":67865,"ELEMENT_SET_NO":999,"REV_AT_EPOCH":310,"BSTAR":0.00015882644,"MEAN_MOTION_DOT":0.00030762,"MEAN_MOTION_DDOT":0},{"OBJECT_NAME":"STARLINK-36780","OBJECT_ID":"2026-034S","EPOCH":"2026-03-05T06:00:02.999808","MEAN_MOTION":15.80843185,"ECCENTRICITY":0.00012568,"INCLINATION":53.1592,"RA_OF_ASC_NODE":233.4626,"ARG_OF_PERICENTER":67.0612,"MEAN_ANOMALY":41.1763,"EPHEMERIS_TYPE":0,"CLASSIFICATION_TYPE":"U","NORAD_CAT_ID":67866,"ELEMENT_SET_NO":999,"REV_AT_EPOCH":314,"BSTAR":0.00037821714,"MEAN_MOTION_DOT":0.00074492,"MEAN_MOTION_DDOT":0},{"OBJECT_NAME":"STARLINK-36761","OBJECT_ID":"2026-034T","EPOCH":"2026-03-05T06:00:02.999808","MEAN_MOTION":15.80865265,"ECCENTRICITY":6.148e-5,"INCLINATION":53.1593,"RA_OF_ASC_NODE":233.4538,"ARG_OF_PERICENTER":95.4736,"MEAN_ANOMALY":17.0323,"EPHEMERIS_TYPE":0,"CLASSIFICATION_TYPE":"U","NORAD_CAT_ID":67867,"ELEMENT_SET_NO":999,"REV_AT_EPOCH":314,"BSTAR":0.00010843857,"MEAN_MOTION_DOT":0.00020748,"MEAN_MOTION_DDOT":0},{"OBJECT_NAME":"STARLINK-36762","OBJECT_ID":"2026-034U","EPOCH":"2026-03-05T06:00:02.999808","MEAN_MOTION":15.80838161,"ECCENTRICITY":0.00010781,"INCLINATION":53.1591,"RA_OF_ASC_NODE":233.4454,"ARG_OF_PERICENTER":116.4612,"MEAN_ANOMALY":0.3213,"EPHEMERIS_TYPE":0,"CLASSIFICATION_TYPE":"U","NORAD_CAT_ID":67868,"ELEMENT_SET_NO":999,"REV_AT_EPOCH":314,"BSTAR":0.0004377543,"MEAN_MOTION_DOT":0.00086428,"MEAN_MOTION_DDOT":0},{"OBJECT_NAME":"STARLINK-36779","OBJECT_ID":"2026-034V","EPOCH":"2026-03-05T06:00:02.999808","MEAN_MOTION":15.80822396,"ECCENTRICITY":0.00012453,"INCLINATION":53.1592,"RA_OF_ASC_NODE":233.436,"ARG_OF_PERICENTER":80.1281,"MEAN_ANOMALY":40.9316,"EPHEMERIS_TYPE":0,"CLASSIFICATION_TYPE":"U","NORAD_CAT_ID":67869,"ELEMENT_SET_NO":999,"REV_AT_EPOCH":314,"BSTAR":0.00053081991,"MEAN_MOTION_DOT":0.00105105,"MEAN_MOTION_DDOT":0},{"OBJECT_NAME":"STARLINK-36770","OBJECT_ID":"2026-034W","EPOCH":"2026-03-05T06:00:02.999808","MEAN_MOTION":15.8081818,"ECCENTRICITY":1.758e-5,"INCLINATION":53.1591,"RA_OF_ASC_NODE":233.4182,"ARG_OF_PERICENTER":121.185,"MEAN_ANOMALY":8.4215,"EPHEMERIS_TYPE":0,"CLASSIFICATION_TYPE":"U","NORAD_CAT_ID":67870,"ELEMENT_SET_NO":999,"REV_AT_EPOCH":314,"BSTAR":0.00056050083,"MEAN_MOTION_DOT":0.00111078,"MEAN_MOTION_DDOT":0},{"OBJECT_NAME":"STARLINK-36769","OBJECT_ID":"2026-034X","EPOCH":"2026-03-05T06:00:02.999808","MEAN_MOTION":15.8083458,"ECCENTRICITY":0.00010092,"INCLINATION":53.1593,"RA_OF_ASC_NODE":233.4273,"ARG_OF_PERICENTER":72.5958,"MEAN_ANOMALY":52.7325,"EPHEMERIS_TYPE":0,"CLASSIFICATION_TYPE":"U","NORAD_CAT_ID":67871,"ELEMENT_SET_NO":999,"REV_AT_EPOCH":314,"BSTAR":0.00049653828,"MEAN_MOTION_DOT":0.00098248,"MEAN_MOTION_DDOT":0},{"OBJECT_NAME":"STARLINK-36786","OBJECT_ID":"2026-034Y","EPOCH":"2026-03-05T06:00:02.999808","MEAN_MOTION":15.80834714,"ECCENTRICITY":0.00011435,"INCLINATION":53.1592,"RA_OF_ASC_NODE":233.4097,"ARG_OF_PERICENTER":74.7576,"MEAN_ANOMALY":59.1177,"EPHEMERIS_TYPE":0,"CLASSIFICATION_TYPE":"U","NORAD_CAT_ID":67872,"ELEMENT_SET_NO":999,"REV_AT_EPOCH":314,"BSTAR":0.00038059677,"MEAN_MOTION_DOT":0.00074939,"MEAN_MOTION_DDOT":0},{"OBJECT_NAME":"STARLINK-36783","OBJECT_ID":"2026-034Z","EPOCH":"2026-03-05T06:00:02.999808","MEAN_MOTION":15.80845343,"ECCENTRICITY":0.00010803,"INCLINATION":53.1595,"RA_OF_ASC_NODE":233.4001,"ARG_OF_PERICENTER":131.4567,"MEAN_ANOMALY":6.6819,"EPHEMERIS_TYPE":0,"CLASSIFICATION_TYPE":"U","NORAD_CAT_ID":67873,"ELEMENT_SET_NO":999,"REV_AT_EPOCH":314,"BSTAR":0.00035722299,"MEAN_MOTION_DOT":0.0007029,"MEAN_MOTION_DDOT":0},{"OBJECT_NAME":"STARLINK-36730","OBJECT_ID":"2026-034AA","EPOCH":"2026-03-05T06:00:02.999808","MEAN_MOTION":15.80829309,"ECCENTRICITY":9.636e-5,"INCLINATION":53.1592,"RA_OF_ASC_NODE":233.3918,"ARG_OF_PERICENTER":80.4114,"MEAN_ANOMALY":62.0067,"EPHEMERIS_TYPE":0,"CLASSIFICATION_TYPE":"U","NORAD_CAT_ID":67874,"ELEMENT_SET_NO":999,"REV_AT_EPOCH":314,"BSTAR":0.00047625305,"MEAN_MOTION_DOT":0.00094137,"MEAN_MOTION_DDOT":0}]
